[{"OBJECT_NAME":"WORLDVIEW-2 (WV-2)","OBJECT_ID":"2009-055A","EPOCH":"2026-03-09T22:27:15.689664","MEAN_MOTION":14.37910721,"ECCENTRICITY":0.00050548,"INCLINATION":98.4692,"RA_OF_ASC_NODE":143.7977,"ARG_OF_PERICENTER":144.7175,"MEAN_ANOMALY":215.4347,"EPHEMERIS_TYPE":0,"CLASSIFICATION_TYPE":"U","NORAD_CAT_ID":35946,"ELEMENT_SET_NO":999,"REV_AT_EPOCH":86138,"BSTAR":7.9928144e-5,"MEAN_MOTION_DOT":1.98e-6,"MEAN_MOTION_DDOT":0},{"OBJECT_NAME":"IRIDIUM 63","OBJECT_ID":"1998-021B","EPOCH":"2026-03-09T19:43:07.200768","MEAN_MOTION":14.368251,"ECCENTRICITY":0.00022925,"INCLINATION":86.4022,"RA_OF_ASC_NODE":330.6926,"ARG_OF_PERICENTER":90.4846,"MEAN_ANOMALY":269.6614,"EPHEMERIS_TYPE":0,"CLASSIFICATION_TYPE":"U","NORAD_CAT_ID":25286,"ELEMENT_SET_NO":999,"REV_AT_EPOCH":46198,"BSTAR":0.00014985122,"MEAN_MOTION_DOT":4.62e-6,"MEAN_MOTION_DDOT":0}]
